NORAD_CAT_ID,OBJECT_NAME,OBJECT_TYPE,EPOCH,MEAN_MOTION,ECCENTRICITY,INCLINATION,RA_OF_ASC_NODE,ARG_OF_PERICENTER,MEAN_ANOMALY,BSTAR,MEAN_MOTION_DOT,MEAN_MOTION_DDOT,TLE_LINE0,TLE_LINE1,TLE_LINE2,SEMIMAJOR_AXIS,PERIOD,APOGEE,PERIGEE,DECAYED
49164.0,STARLINK-3106,PAYLOAD,2023-07-29 07:18:58,14.98338593,0.0003374,70.0001,160.8052,267.4843,92.593,3.3874e-05,3.11e-06,0.0,0 STARLINK-3106,1 49164U 21082AL  23210.30484306  .00000311  00000-0  33874-4 0  9997,2 49164  70.0001 160.8052 0003374 267.4843  92.5930 14.98338593104687,6950.166,96.106,574.376,569.686,0.0
49164.0,STARLINK-3106,PAYLOAD,2023-07-30 00:56:27,14.98328023,0.0003261,70.0002,158.9538,268.8778,91.2007,0.00017191,1.959e-05,0.0,0 STARLINK-3106,1 49164U 21082AL  23211.03920674  .00001959  00000-0  17191-3 0  9993,2 49164  70.0002 158.9538 0003261 268.8778  91.2007 14.98328023104792,6950.199,96.107,574.33,569.798,0.0
49164.0,STARLINK-3106,PAYLOAD,2023-07-31 02:34:36,14.98329632,0.0003249,70.0002,156.2607,270.2379,89.8408,8.274e-06,6e-08,0.0,0 STARLINK-3106,1 49164U 21082AL  23212.10737005  .00000006  00000-0  82740-5 0  9992,2 49164  70.0002 156.2607 0003249 270.2379  89.8408 14.98329632104953,6950.194,96.107,574.317,569.801,0.0
49164.0,STARLINK-3106,PAYLOAD,2023-07-31 13:47:33,14.98311016,0.0003123,70.0001,155.0831,264.7546,95.3256,0.00031501,3.666e-05,0.0,0 STARLINK-3106,1 49164U 21082AL  23212.57469567  .00003666  00000-0  31501-3 0  9990,2 49164  70.0001 155.0831 0003123 264.7546  95.3256 14.98311016105022,6950.252,96.108,574.287,569.946,0.0
49164.0,STARLINK-3106,PAYLOAD,2023-08-01 02:36:37,14.98329954,0.0003239,69.9999,153.7362,269.2725,90.8063,-3.4689e-05,-5.07e-06,0.0,0 STARLINK-3106,1 49164U 21082AL  23213.10877048 -.00000507  00000-0 -34689-4 0  9991,2 49164  69.9999 153.7362 0003239 269.2725  90.8063 14.98329954105101,6950.193,96.107,574.309,569.807,0.0
49164.0,STARLINK-3106,PAYLOAD,2023-08-01 05:48:52,14.98371273,0.0003456,70.0,153.3997,268.9028,91.1736,-0.00064844,-7.83e-05,0.0,0 STARLINK-3106,1 49164U 21082AL  23213.24227724 -.00007830  00000-0 -64844-3 0  9997,2 49164  70.0000 153.3997 0003456 268.9028  91.1736 14.98371273105124,6950.065,96.104,574.332,569.528,0.0
49164.0,STARLINK-3106,PAYLOAD,2023-08-02 02:38:38,14.98329164,0.0003071,70.0001,151.2114,269.471,90.6097,4.937e-05,4.96e-06,0.0,0 STARLINK-3106,1 49164U 21082AL  23214.11016930  .00000496  00000-0  49370-4 0  9996,2 49164  70.0001 151.2114 0003071 269.4710  90.6097 14.98329164105250,6950.195,96.107,574.195,569.926,0.0
49164.0,STARLINK-3106,PAYLOAD,2023-08-03 02:40:39,14.98336444,0.0002977,70.0003,148.6865,269.1109,90.9709,0.00011719,1.306e-05,0.0,0 STARLINK-3106,1 49164U 21082AL  23215.11156287  .00001306  00000-0  11719-3 0  9993,2 49164  70.0003 148.6865 0002977 269.1109  90.9709 14.98336444105407,6950.173,96.107,574.107,569.969,0.0
49164.0,STARLINK-3106,PAYLOAD,2023-08-04 02:42:41,14.98323942,0.0002801,70.0007,146.1615,272.8788,87.205,-3.0593e-05,-4.58e-06,0.0,0 STARLINK-3106,1 49164U 21082AL  23216.11297531 -.00000458  00000-0 -30593-4 0  9993,2 49164  70.0007 146.1615 0002801 272.8788  87.2050 14.98323942105550,6950.212,96.107,574.023,570.13,0.0
49164.0,STARLINK-3106,PAYLOAD,2023-08-05 02:44:41,14.983357,0.0002838,70.0003,143.6365,270.0125,90.0709,1.9308e-06,-7e-07,0.0,0 STARLINK-3106,1 49164U 21082AL  23217.11436663 -.00000070  00000-0  19308-5 0  9996,2 49164  70.0003 143.6365 0002838 270.0125  90.0709 14.98335700105700,6950.175,96.107,574.013,570.068,0.0
49164.0,STARLINK-3106,PAYLOAD,2023-08-06 04:22:49,14.98339968,0.0002909,70.0005,140.9445,269.418,90.6645,0.00019558,2.242e-05,0.0,0 STARLINK-3106,1 49164U 21082AL  23218.18251519  .00002242  00000-0  19558-3 0  9996,2 49164  70.0005 140.9445 0002909 269.4180  90.6645 14.98339968105865,6950.162,96.106,574.049,570.005,0.0
49164.0,STARLINK-3106,PAYLOAD,2023-08-06 18:48:03,14.98322039,0.0003157,70.0002,139.4295,265.075,95.0048,-0.00013455,-1.698e-05,0.0,0 STARLINK-3106,1 49164U 21082AL  23218.78337596 -.00001698  00000-0 -13455-3 0  9998,2 49164  70.0002 139.4295 0003157 265.0750  95.0048 14.98322039105956,6950.218,96.108,574.277,569.888,0.0
49164.0,STARLINK-3106,PAYLOAD,2023-08-07 18:50:04,14.98330897,0.0003134,70.0001,136.9052,266.7723,93.3078,-7.8142e-05,-1.025e-05,0.0,0 STARLINK-3106,1 49164U 21082AL  23219.78477283 -.00001025  00000-0 -78142-4 0  9996,2 49164  70.0001 136.9052 0003134 266.7723  93.3078 14.98330897106104,6950.19,96.107,574.233,569.877,0.0
49164.0,STARLINK-3106,PAYLOAD,2023-08-08 01:14:36,14.98336634,0.000305,70.0003,136.2316,265.8085,94.2725,-2.8576e-06,-1.27e-06,0.0,0 STARLINK-3106,1 49164U 21082AL  23220.05180730 -.00000127  00000-0 -28576-5 0  9995,2 49164  70.0003 136.2316 0003050 265.8085  94.2725 14.98336634106148,6950.172,96.107,574.157,569.918,0.0
49164.0,STARLINK-3106,PAYLOAD,2023-08-09 10:53:24,14.9833339,0.0003171,70.0002,132.6967,265.1815,94.8982,0.00025883,2.997e-05,0.0,0 STARLINK-3106,1 49164U 21082AL  23221.45376139  .00002997  00000-0  25883-3 0  9991,2 49164  70.0002 132.6967 0003171 265.1815  94.8982 14.98333390106357,6950.182,96.107,574.251,569.844,0.0
49164.0,STARLINK-3106,PAYLOAD,2023-08-09 22:06:22,14.98329997,0.0002828,70.0003,131.5185,263.2032,96.8805,-5.1287e-06,-1.54e-06,0.0,0 STARLINK-3106,1 49164U 21082AL  23221.92108942 -.00000154  00000-0 -51287-5 0  9992,2 49164  70.0003 131.5185 0002828 263.2032  96.8805 14.98329997106428,6950.193,96.107,574.023,570.092,0.0
49164.0,STARLINK-3106,PAYLOAD,2023-08-10 04:30:53,14.9833722,0.0002886,70.0001,130.8452,263.3603,96.7227,5.348e-05,5.45e-06,0.0,0 STARLINK-3106,1 49164U 21082AL  23222.18812239  .00000545  00000-0  53480-4 0  9990,2 49164  70.0001 130.8452 0002886 263.3603  96.7227 14.98337220106463,6950.171,96.107,574.041,570.03,0.0
49164.0,STARLINK-3106,PAYLOAD,2023-08-10 17:19:58,14.98308044,0.0003049,69.9995,129.4988,263.3463,96.7349,0.00028765,3.339e-05,0.0,0 STARLINK-3106,1 49164U 21082AL  23222.72220065  .00003339  00000-0  28765-3 0  9991,2 49164  69.9995 129.4988 0003049 263.3463  96.7349 14.98308044106542,6950.261,96.108,574.245,570.007,0.0
49164.0,STARLINK-3106,PAYLOAD,2023-08-11 18:58:07,14.98324938,0.0002879,69.9988,126.8066,267.0759,93.007,9.6598e-06,2.2e-07,0.0,0 STARLINK-3106,1 49164U 21082AL  23223.79036756  .00000022  00000-0  96598-5 0  9998,2 49164  69.9988 126.8066 0002879 267.0759  93.0070 14.98324938106700,6950.209,96.107,574.075,570.073,0.0
49164.0,STARLINK-3106,PAYLOAD,2023-08-12 02:58:47,14.98332245,0.0003016,70.0,125.9654,269.8651,90.2162,5.864e-05,6.07e-06,0.0,0 STARLINK-3106,1 49164U 21082AL  23224.12416230  .00000607  00000-0  58640-4 0  9999,2 49164  70.0000 125.9654 0003016 269.8651  90.2162 14.98332245106752,6950.186,96.107,574.147,569.955,0.0
49164.0,STARLINK-3106,PAYLOAD,2023-08-13 03:00:48,14.98335876,0.0003051,69.9997,123.4403,270.1843,89.8966,8.1876e-05,8.84e-06,0.0,0 STARLINK-3106,1 49164U 21082AL  23225.12555916  .00000884  00000-0  81876-4 0  9999,2 49164  69.9997 123.4403 0003051 270.1843  89.8966 14.98335876106902,6950.175,96.107,574.16,569.919,0.0
49164.0,STARLINK-3106,PAYLOAD,2023-08-13 19:02:09,14.98325673,0.0003034,69.9998,121.7567,269.944,90.1371,6.7849e-05,7.17e-06,0.0,0 STARLINK-3106,1 49164U 21082AL  23225.79316586  .00000717  00000-0  67849-4 0  9999,2 49164  69.9998 121.7567 0003034 269.9440  90.1371 14.98325673107006,6950.206,96.107,574.18,569.963,0.0
49164.0,STARLINK-3106,PAYLOAD,2023-08-15 03:04:50,14.98336638,0.0003136,69.9998,118.3896,269.2369,90.8431,7.4042e-05,7.91e-06,0.0,0 STARLINK-3106,1 49164U 21082AL  23227.12835810  .00000791  00000-0  74042-4 0  9999,2 49164  69.9998 118.3896 0003136 269.2369  90.8431 14.98336638107208,6950.172,96.107,574.217,569.858,0.0
49164.0,STARLINK-3106,PAYLOAD,2023-08-16 03:06:50,14.98367104,0.0003022,69.9998,115.8646,274.2199,85.8615,-0.00044782,-5.437e-05,0.0,0 STARLINK-3106,1 49164U 21082AL  23228.12974749 -.00005437  00000-0 -44782-3 0  9996,2 49164  69.9998 115.8646 0003022 274.2199  85.8615 14.98367104107350,6950.078,96.105,574.043,569.843,0.0
49164.0,STARLINK-3106,PAYLOAD,2023-08-16 22:20:28,14.98333008,0.0003189,70.0001,113.8446,269.546,90.5334,-3.3099e-05,-4.88e-06,0.0,0 STARLINK-3106,1 49164U 21082AL  23228.93088067 -.00000488  00000-0 -33099-4 0  9995,2 49164  70.0001 113.8446 0003189 269.5460  90.5334 14.98333008107476,6950.184,96.107,574.265,569.832,0.0
49164.0,STARLINK-3106,PAYLOAD,2023-08-18 01:34:45,14.98338134,0.0003295,69.9994,110.9836,267.3117,92.7665,-0.00027798,-3.409e-05,0.0,0 STARLINK-3106,1 49164U 21082AL  23230.06580454 -.00003409  00000-0 -27798-3 0  9993,2 49164  69.9994 110.9836 0003295 267.3117  92.7665 14.98338134107643,6950.168,96.106,574.323,569.743,0.0
49164.0,STARLINK-3106,PAYLOAD,2023-08-19 01:36:45,14.98337368,0.0003069,69.9992,108.4587,269.5904,90.4903,0.00012522,1.402e-05,0.0,0 STARLINK-3106,1 49164U 21082AL  23231.06719565  .00001402  00000-0  12522-3 0  9999,2 49164  69.9992 108.4587 0003069 269.5904  90.4903 14.98337368107797,6950.17,96.107,574.168,569.902,0.0
49164.0,STARLINK-3106,PAYLOAD,2023-08-20 01:38:47,14.9832918,0.0003055,69.9993,105.9334,269.7473,90.3336,0.00013875,1.563e-05,0.0,0 STARLINK-3106,1 49164U 21082AL  23232.06860094  .00001563  00000-0  13875-3 0  9994,2 49164  69.9993 105.9334 0003055 269.7473  90.3336 14.98329180107947,6950.195,96.107,574.184,569.937,0.0
49164.0,STARLINK-3106,PAYLOAD,2023-08-21 01:40:47,14.98341103,0.0003139,69.9993,103.4088,270.589,89.4909,2.2814e-05,1.79e-06,0.0,0 STARLINK-3106,1 49164U 21082AL  23233.06999401  .00000179  00000-0  22814-4 0  9996,2 49164  69.9993 103.4088 0003139 270.5890  89.4909 14.98341103108093,6950.159,96.106,574.205,569.842,0.0
49164.0,STARLINK-3106,PAYLOAD,2023-08-21 20:54:24,14.98331042,0.0003084,69.9997,101.3885,273.7608,86.3199,-1.9832e-05,-3.3e-06,0.0,0 STARLINK-3106,1 49164U 21082AL  23233.87112032 -.00000330  00000-0 -19832-4 0  9999,2 49164  69.9997 101.3885 0003084 273.7608  86.3199 14.98331042108212,6950.19,96.107,574.198,569.911,0.0
